{
  "type": "FeatureCollection",
  "features": [
    {
      "type": "Feature",
      "properties": {
        "norad_id": 43647,
        "name": "BEIDOU-3 M16 (C35)",
        "group": "gnss",
        "lat": -37.66906169962299,
        "lon": 159.89479165023232,
        "alt_km": 21550.50841128774,
        "timestamp": "2025-12-22T16:55:17.705043+00:00",
        "meta_object_name": "BEIDOU-3 M16 (C35)",
        "meta_object_id": "2018-078A",
        "meta_epoch": "2025-12-21T06:57:26.662752",
        "meta_mean_motion": 1.86232383,
        "meta_eccentricity": 0.00073912,
        "meta_inclination": 54.254,
        "meta_ra_of_asc_node": 306.2225,
        "meta_arg_of_pericenter": 20.1589,
        "meta_mean_anomaly": 339.8673,
        "meta_ephemeris_type": 0,
        "meta_classification_type": "U",
        "meta_norad_cat_id": 43647,
        "meta_element_set_no": 999,
        "meta_rev_at_epoch": 4884,
        "meta_bstar": 0,
        "meta_mean_motion_dot": -6.2e-07,
        "meta_mean_motion_ddot": 0,
        "tle_line1": "1 43647U 18078A   25355.28989193 -.00000062  00000+0  00000+0 0  9994",
        "tle_line2": "2 43647  54.2540 306.2225 0007391  20.1589 339.8673  1.86232383 48840"
      },
      "geometry": {
        "type": "Point",
        "coordinates": [
          159.89479165023232,
          -37.66906169962299
        ]
      }
    },
    {
      "type": "Feature",
      "properties": {
        "norad_id": 43648,
        "name": "BEIDOU-3 M15 (C34)",
        "group": "gnss",
        "lat": 29.78403120342068,
        "lon": 101.83175863701472,
        "alt_km": 21530.34193770248,
        "timestamp": "2025-12-22T16:55:17.705068+00:00",
        "meta_object_name": "BEIDOU-3 M15 (C34)",
        "meta_object_id": "2018-078B",
        "meta_epoch": "2025-12-21T10:03:31.527360",
        "meta_mean_motion": 1.86232375,
        "meta_eccentricity": 0.0004048,
        "meta_inclination": 54.2499,
        "meta_ra_of_asc_node": 306.2186,
        "meta_arg_of_pericenter": 19.7002,
        "meta_mean_anomaly": 340.3131,
        "meta_ephemeris_type": 0,
        "meta_classification_type": "U",
        "meta_norad_cat_id": 43648,
        "meta_element_set_no": 999,
        "meta_rev_at_epoch": 4886,
        "meta_bstar": 0,
        "meta_mean_motion_dot": -6.1e-07,
        "meta_mean_motion_ddot": 0,
        "tle_line1": "1 43648U 18078B   25355.41911490 -.00000061  00000+0  00000+0 0  9994",
        "tle_line2": "2 43648  54.2499 306.2186 0004048  19.7002 340.3131  1.86232375 48869"
      },
      "geometry": {
        "type": "Point",
        "coordinates": [
          101.83175863701472,
          29.78403120342068
        ]
      }
    },
    {
      "type": "Feature",
      "properties": {
        "norad_id": 43683,
        "name": "BEIDOU-3 G1 (C59)",
        "group": "gnss",
        "lat": 1.036074661384793,
        "lon": 125.28848913857188,
        "alt_km": 35781.18724912311,
        "timestamp": "2025-12-22T16:55:17.705093+00:00",
        "meta_object_name": "BEIDOU-3 G1 (C59)",
        "meta_object_id": "2018-085A",
        "meta_epoch": "2025-12-22T06:58:58.643328",
        "meta_mean_motion": 1.00267812,
        "meta_eccentricity": 0.00015219,
        "meta_inclination": 2.6304,
        "meta_ra_of_asc_node": 102.6853,
        "meta_arg_of_pericenter": 45.2099,
        "meta_mean_anomaly": 187.944,
        "meta_ephemeris_type": 0,
        "meta_classification_type": "U",
        "meta_norad_cat_id": 43683,
        "meta_element_set_no": 999,
        "meta_rev_at_epoch": 2628,
        "meta_bstar": 0,
        "meta_mean_motion_dot": -2.58e-06,
        "meta_mean_motion_ddot": 0,
        "tle_line1": "1 43683U 18085A   25356.29095652 -.00000258  00000+0  00000+0 0  9999",
        "tle_line2": "2 43683   2.6304 102.6853 0001521  45.2099 187.9440  1.00267812 26282"
      },
      "geometry": {
        "type": "Point",
        "coordinates": [
          125.28848913857188,
          1.036074661384793
        ]
      }
    },
    {
      "type": "Feature",
      "properties": {
        "norad_id": 43687,
        "name": "COSMOS 2529 (757)",
        "group": "gnss",
        "lat": -23.839358579820665,
        "lon": -173.7409617706296,
        "alt_km": 19130.137418183156,
        "timestamp": "2025-12-22T16:55:17.705115+00:00",
        "meta_object_name": "COSMOS 2529 (757)",
        "meta_object_id": "2018-086A",
        "meta_epoch": "2025-12-21T19:13:53.194368",
        "meta_mean_motion": 2.13102139,
        "meta_eccentricity": 0.00069117,
        "meta_inclination": 64.2926,
        "meta_ra_of_asc_node": 198.5821,
        "meta_arg_of_pericenter": 253.6836,
        "meta_mean_anomaly": 106.3102,
        "meta_ephemeris_type": 0,
        "meta_classification_type": "U",
        "meta_norad_cat_id": 43687,
        "meta_element_set_no": 999,
        "meta_rev_at_epoch": 5550,
        "meta_bstar": 0,
        "meta_mean_motion_dot": 9.6e-07,
        "meta_mean_motion_ddot": 0,
        "tle_line1": "1 43687U 18086A   25355.80131012  .00000096  00000+0  00000+0 0  9990",
        "tle_line2": "2 43687  64.2926 198.5821 0006911 253.6836 106.3102  2.13102139 55503"
      },
      "geometry": {
        "type": "Point",
        "coordinates": [
          -173.7409617706296,
          -23.839358579820665
        ]
      }
    },
    {
      "type": "Feature",
      "properties": {
        "norad_id": 43706,
        "name": "BEIDOU-3 M17 (C36)",
        "group": "gnss",
        "lat": 28.314023395308205,
        "lon": -148.79438666069873,
        "alt_km": 21524.214563390455,
        "timestamp": "2025-12-22T16:55:17.705133+00:00",
        "meta_object_name": "BEIDOU-3 M17 (C36)",
        "meta_object_id": "2018-093A",
        "meta_epoch": "2025-12-20T12:04:20.840736",
        "meta_mean_motion": 1.86228485,
        "meta_eccentricity": 0.00060883,
        "meta_inclination": 54.1751,
        "meta_ra_of_asc_node": 188.3582,
        "meta_arg_of_pericenter": 307.8758,
        "meta_mean_anomaly": 51.559,
        "meta_ephemeris_type": 0,
        "meta_classification_type": "U",
        "meta_norad_cat_id": 43706,
        "meta_element_set_no": 999,
        "meta_rev_at_epoch": 4820,
        "meta_bstar": 0,
        "meta_mean_motion_dot": 9.7e-07,
        "meta_mean_motion_ddot": 0,
        "tle_line1": "1 43706U 18093A   25354.50301899  .00000097  00000+0  00000+0 0  9999",
        "tle_line2": "2 43706  54.1751 188.3582 0006088 307.8758  51.5590  1.86228485 48203"
      },
      "geometry": {
        "type": "Point",
        "coordinates": [
          -148.79438666069873,
          28.314023395308205
        ]
      }
    },
    {
      "type": "Feature",
      "properties": {
        "norad_id": 43707,
        "name": "BEIDOU-3 M18 (C37)",
        "group": "gnss",
        "lat": 39.25988780508818,
        "lon": -27.93260193225293,
        "alt_km": 21535.887205772666,
        "timestamp": "2025-12-22T16:55:17.705151+00:00",
        "meta_object_name": "BEIDOU-3 M18 (C37)",
        "meta_object_id": "2018-093B",
        "meta_epoch": "2025-12-20T21:39:28.587744",
        "meta_mean_motion": 1.86226757,
        "meta_eccentricity": 0.00062168,
        "meta_inclination": 54.1741,
        "meta_ra_of_asc_node": 188.3365,
        "meta_arg_of_pericenter": 353.7926,
        "meta_mean_anomaly": 6.2524,
        "meta_ephemeris_type": 0,
        "meta_classification_type": "U",
        "meta_norad_cat_id": 43707,
        "meta_element_set_no": 999,
        "meta_rev_at_epoch": 4821,
        "meta_bstar": 0,
        "meta_mean_motion_dot": 9.5e-07,
        "meta_mean_motion_ddot": 0,
        "tle_line1": "1 43707U 18093B   25354.90241421  .00000095  00000+0  00000+0 0  9996",
        "tle_line2": "2 43707  54.1741 188.3365 0006216 353.7926   6.2524  1.86226757 48217"
      },
      "geometry": {
        "type": "Point",
        "coordinates": [
          -27.93260193225293,
          39.25988780508818
        ]
      }
    },
    {
      "type": "Feature",
      "properties": {
        "norad_id": 43873,
        "name": "GPS BIII-1  (PRN 04)",
        "group": "gnss",
        "lat": 33.347133406983794,
        "lon": -107.63117412686431,
        "alt_km": 20124.501127077216,
        "timestamp": "2025-12-22T16:55:17.705171+00:00",
        "meta_object_name": "GPS BIII-1  (PRN 04)",
        "meta_object_id": "2018-109A",
        "meta_epoch": "2025-12-21T18:06:33.031872",
        "meta_mean_motion": 2.00553985,
        "meta_eccentricity": 0.00375944,
        "meta_inclination": 55.5715,
        "meta_ra_of_asc_node": 99.1915,
        "meta_arg_of_pericenter": 195.3805,
        "meta_mean_anomaly": 336.8667,
        "meta_ephemeris_type": 0,
        "meta_classification_type": "U",
        "meta_norad_cat_id": 43873,
        "meta_element_set_no": 999,
        "meta_rev_at_epoch": 5151,
        "meta_bstar": 0,
        "meta_mean_motion_dot": -1e-08,
        "meta_mean_motion_ddot": 0,
        "tle_line1": "1 43873U 18109A   25355.75454898 -.00000001  00000+0  00000+0 0  9994",
        "tle_line2": "2 43873  55.5715  99.1915 0037594 195.3805 336.8667  2.00553985 51516"
      },
      "geometry": {
        "type": "Point",
        "coordinates": [
          -107.63117412686431,
          33.347133406983794
        ]
      }
    }
  ]
}